GAOFEN-11 01            
1 43585U 18063A   26158.26418929  .00016818  00000+0  25201-3 0  9992
2 43585  97.1294 225.1733 0004238  32.6541 327.4975 15.55005391438804
ICESAT-2                
1 43613U 18070A   26158.07117500  .00010810  00000+0  39285-3 0  9995
2 43613  92.0070 288.2474 0005183 121.6207 238.5549 15.28236448430914
HYSIS                   
1 43719U 18096A   26158.26410678  .00000858  00000+0  12415-3 0  9990
2 43719  97.9836 225.0895 0001603 111.5689 248.5693 14.78674104405952
KAZSTSAT                
1 43783U 18099AB  26157.89008830  .00001319  00000+0  11095-3 0  9991
2 43783  97.4264 190.2872 0007703  96.4909 263.7192 14.99838012409763
SAUDISAT 5A             
1 43831U 18102A   26158.27622171  .00006110  00000+0  22641-3 0  9996
2 43831  97.3068 220.0487 0010269 160.2323 199.9316 15.27945464414163
GAOFEN-10R              
1 44622U 19066A   26158.30322957  .00001383  00000+0  17673-3 0  9994
2 44622  98.0498 111.8108 0005979 155.2333 204.9168 14.83039693360915
CARTOSAT-3              
1 44804U 19081A   26158.21183883  .00004922  00000+0  23659-3 0  9999
2 44804  97.4306 220.2393 0012260 181.1542 178.9667 15.19213030361958
GAOFEN-12 01            
1 44819U 19082A   26158.27944488  .00000480  00000+0  69459-4 0  9992
2 44819  97.8101 164.9205 0002489  81.8640 278.2855 14.80450672352623
CSG-1                   
1 44873U 19092A   26158.26231491  .00000510  00000+0  70623-4 0  9994
2 44873  97.8887 342.0087 0001453  90.8260 269.3119 14.82156811350003
NEMO-HD                 
1 46277U 20061F   26158.21711060  .00011854  00000+0  25841-3 0  9996
2 46277  97.1920 220.2720 0002634  91.7627 268.3924 15.44393400320448
SENTINEL-6A             
1 46984U 20086A   26158.24791576 -.00000038  00000+0  99250-4 0  9990
2 46984  66.0384 155.6964 0007953 270.2907  89.7197 12.80929731259051
CAS500-1                
1 47932U 21022A   26158.25523098  .00007531  00000+0  35040-3 0  9998
2 47932  97.3907  53.7088 0004268 341.5949  18.5131 15.20219180289252
GAOFEN-12 02            
1 48079U 21026A   26158.28944490  .00000461  00000+0  67429-4 0  9993
2 48079  97.9920 156.5107 0003317 266.0950  93.9883 14.80288788280298
PLEIADES NEO 3          
1 48268U 21034A   26158.25833848 -.00006001  00000+0 -75689-3 0  9997
2 48268  97.8925 233.1678 0001449  87.8525 272.2854 14.81663717276181
PLEIADES NEO 4          
1 49070U 21073E   26157.14404851  .00000450  00000+0  63795-4 0  9993
2 49070  97.8928 232.0648 0001391  84.3469 275.7903 14.81670310259738
LANDSAT 9               
1 49260U 21088A   26157.62133424  .00000364  00000+0  90967-4 0  9993
2 49260  98.2277 227.9263 0001446  89.2001 270.9363 14.57103573249465
CSG-2                   
1 51444U 22008A   26157.35089398  .00000865  00000+0  11522-3 0  9998
2 51444  97.8885 341.1056 0001500  82.8328 277.3056 14.82168009234987
GAOFEN-12 03            
1 52912U 22069A   26158.24995384  .00001310  00000+0  17984-3 0  9990
2 52912  97.8286  46.3702 0001604 110.4935 249.6450 14.80019736213147
SWOT                    
1 54754U 22173A   26157.91319379  .00000005  00000+0  49984-5 0  9996
2 54754  77.6113  49.1796 0000184  96.4506 263.6666 14.00168354177711
GAOFEN-12 04            
1 57654U 23123A   26158.26793863  .00001214  00000+0  16654-3 0  9996
2 57654  97.9129  76.4281 0001785  87.4713 272.6703 14.80210306151161
PARS 1                  
1 59065U 24039Q   26158.27966603  .00011147  00000+0  23369-3 0  9993
2 59065  97.4822 138.8893 0010823 141.3699 218.8326 15.45519637127114
RESURS-P 4              
1 59371U 24061A   26158.27041951  .00003396  00000+0  11214-3 0  9991
2 59371  97.2747 106.3425 0001422 131.8884 228.2480 15.32074605122246
LEGION 1                
1 59625U 24081A   26158.00050710  .00003965  00000+0  20617-3 0  9998
2 59625  97.5013 235.9667 0010438  50.7402 309.4756 15.16596418115991
LEGION 2                
1 59626U 24081B   26157.96437329  .00004462  00000+0  23166-3 0  9993
2 59626  97.5013 236.0289 0011760  19.7466 340.4219 15.16575362115992
ALOS-4 (DAICHI-4)       
1 60182U 24123A   26157.81067848  .00001689  00000+0  23294-3 0  9998
2 60182  97.9239 255.1300 0001681  98.6257 261.5145 14.79475508104343
LEGION 3                
1 60452U 24146A   26157.98321038  .00004651  00000+0  25170-3 0  9992
2 60452  45.0007  85.2769 0006848 105.2224 254.9413 15.15959240100475
LEGION 4                
1 60453U 24146B   26158.31572846  .00003982  00000+0  21713-3 0  9991
2 60453  45.0000 175.4052 0014030 257.1565 102.7746 15.15963541 99377
SENTINEL-2C             
1 60989U 24157A   26157.96274667  .00000112  00000+0  59476-4 0  9997
2 60989  98.5693 232.8891 0001197  79.3042 280.8276 14.30815029 91523
IONOSFERA-M 1           
1 61735U 24199A   26157.99652531  .00000049  00000+0  41677-4 0  9999
2 61735  98.7186  31.2758 0001636 124.0995 236.0338 14.22752427126252
