OBJECT_NAME,OBJECT_ID,EPOCH,MEAN_MOTION,ECCENTRICITY,INCLINATION,RA_OF_ASC_NODE,ARG_OF_PERICENTER,MEAN_ANOMALY,EPHEMERIS_TYPE,CLASSIFICATION_TYPE,NORAD_CAT_ID,ELEMENT_SET_NO,REV_AT_EPOCH,BSTAR,MEAN_MOTION_DOT,MEAN_MOTION_DDOT
GAOFEN-11 01,2018-063A,2026-06-07T06:20:25.954656,15.55005391,.00042388,97.1294,225.1733,32.6541,327.4975,0,U,43585,999,43880,.25201051E-3,.16818E-3,0
ICESAT-2,2018-070A,2026-06-07T01:42:29.520000,15.28236448,.00051832,92.0070,288.2474,121.6207,238.5549,0,U,43613,999,43091,.39285343E-3,.1081E-3,0
HYSIS,2018-096A,2026-06-07T06:20:18.825792,14.78674104,.00016037,97.9836,225.0895,111.5689,248.5693,0,U,43719,999,40595,.12415372E-3,.858E-5,0
KAZSTSAT,2018-099AB,2026-06-06T21:21:43.629120,14.99838012,.00077031,97.4264,190.2872,96.4909,263.7192,0,U,43783,999,40976,.11094878E-3,.1319E-4,0
SAUDISAT 5A,2018-102A,2026-06-07T06:37:45.555744,15.27945464,.00102694,97.3068,220.0487,160.2323,199.9316,0,U,43831,999,41416,.22641345E-3,.611E-4,0
GAOFEN-10R,2019-066A,2026-06-07T07:16:39.034848,14.83039693,.00059798,98.0498,111.8108,155.2333,204.9168,0,U,44622,999,36091,.17672961E-3,.1383E-4,0
CARTOSAT-3,2019-081A,2026-06-07T05:05:02.874912,15.19213030,.00122601,97.4306,220.2393,181.1542,178.9667,0,U,44804,999,36195,.23658739E-3,.4922E-4,0
GAOFEN-12 01,2019-082A,2026-06-07T06:42:24.037632,14.80450672,.00024898,97.8101,164.9205,81.8640,278.2855,0,U,44819,999,35262,.69459278E-4,.48E-5,0
CSG-1,2019-092A,2026-06-07T06:17:44.008224,14.82156811,.00014536,97.8887,342.0087,90.8260,269.3119,0,U,44873,999,35000,.70623446E-4,.51E-5,0
NEMO-HD,2020-061F,2026-06-07T05:12:38.355840,15.44393400,.00026347,97.1920,220.2720,91.7627,268.3924,0,U,46277,999,32044,.25840779E-3,.11854E-3,0
SENTINEL-6A,2020-086A,2026-06-07T05:56:59.921664,12.80929731,.00079539,66.0384,155.6964,270.2907,89.7197,0,U,46984,999,25905,.99250395E-4,-.38E-6,0
CAS500-1,2021-022A,2026-06-07T06:07:31.956672,15.20219180,.00042685,97.3907,53.7088,341.5949,18.5131,0,U,47932,999,28925,.35040214E-3,.7531E-4,0
GAOFEN-12 02,2021-026A,2026-06-07T06:56:48.039360,14.80288788,.00033172,97.9920,156.5107,266.0950,93.9883,0,U,48079,999,28029,.67428909E-4,.461E-5,0
PLEIADES NEO 3,2021-034A,2026-06-07T06:12:00.444672,14.81663717,.00014495,97.8925,233.1678,87.8525,272.2854,0,U,48268,999,27618,-.75688793E-3,-.6001E-4,0
PLEIADES NEO 4,2021-073E,2026-06-06T03:27:25.791264,14.81670310,.00013915,97.8928,232.0648,84.3469,275.7903,0,U,49070,999,25973,.63794892E-4,.45E-5,0
LANDSAT 9,2021-088A,2026-06-06T14:54:43.278336,14.57103573,.00014462,98.2277,227.9263,89.2001,270.9363,0,U,49260,999,24946,.90966914E-4,.364E-5,0
CSG-2,2022-008A,2026-06-06T08:25:17.239872,14.82168009,.00015003,97.8885,341.1056,82.8328,277.3056,0,U,51444,999,23498,.11521837E-3,.865E-5,0
GAOFEN-12 03,2022-069A,2026-06-07T05:59:56.011776,14.80019736,.00016045,97.8286,46.3702,110.4935,249.6450,0,U,52912,999,21314,.17983918E-3,.131E-4,0
SWOT,2022-173A,2026-06-06T21:54:59.943456,14.00168354,.00001841,77.6113,49.1796,96.4506,263.6666,0,U,54754,999,17771,.49984E-5,.5E-7,0
GAOFEN-12 04,2023-123A,2026-06-07T06:25:49.897632,14.80210306,.00017858,97.9129,76.4281,87.4713,272.6703,0,U,57654,999,15116,.16653629E-3,.1214E-4,0
PARS 1,2024-039Q,2026-06-07T06:42:43.144992,15.45519637,.00108233,97.4822,138.8893,141.3699,218.8326,0,U,59065,999,12711,.23369458E-3,.11147E-3,0
RESURS-P 4,2024-061A,2026-06-07T06:29:24.245664,15.32074605,.00014228,97.2747,106.3425,131.8884,228.2480,0,U,59371,999,12224,.11213576E-3,.3396E-4,0
LEGION 1,2024-081A,2026-06-07T00:00:43.813440,15.16596418,.00104389,97.5013,235.9667,50.7402,309.4756,0,U,59625,999,11599,.20616866E-3,.3965E-4,0
LEGION 2,2024-081B,2026-06-06T23:08:41.852256,15.16575362,.00117601,97.5013,236.0289,19.7466,340.4219,0,U,59626,999,11599,.23165942E-3,.4462E-4,0
ALOS-4 (DAICHI-4),2024-123A,2026-06-06T19:27:22.620672,14.79475508,.00016816,97.9239,255.1300,98.6257,261.5145,0,U,60182,999,10434,.23293895E-3,.1689E-4,0
LEGION 3,2024-146A,2026-06-06T23:35:49.376832,15.15959240,.00068488,45.0007,85.2769,105.2224,254.9413,0,U,60452,999,10047,.2517019E-3,.4651E-4,0
LEGION 4,2024-146B,2026-06-07T07:34:38.938944,15.15963541,.00140301,45.0000,175.4052,257.1565,102.7746,0,U,60453,999,9937,.21713319E-3,.3982E-4,0
SENTINEL-2C,2024-157A,2026-06-06T23:06:21.312288,14.30815029,.00011977,98.5693,232.8891,79.3042,280.8276,0,U,60989,999,9152,.59475803E-4,.112E-5,0
IONOSFERA-M 1,2024-199A,2026-06-06T23:54:59.786784,14.22752427,.00016363,98.7186,31.2758,124.0995,236.0338,0,U,61735,999,12625,.4167741E-4,.49E-6,0
